ONEWEB-0667             
1 55827U 23029AH  26164.23980802  .00000048  00000+0  86054-4 0  9992
2 55827  87.9196 275.2166 0001798  96.8600 263.2738 13.20771704160620
ONEWEB-0669             
1 55828U 23029AJ  26164.31051002  .00000011  00000+0 -36789-5 0  9995
2 55828  87.9189 275.2140 0002305  88.3281 271.8116 13.20771767160636
ONEWEB-0670             
1 55829U 23029AK  26164.10193630  .00000228  00000+0  57977-3 0  9996
2 55829  87.8947 290.5557 0001723  88.2937 271.8390 13.14502703158894
ONEWEB-0671             
1 55830U 23029AL  26164.12102253  .00000026  00000+0  31733-4 0  9990
2 55830  87.9165 305.7860 0001702  95.5202 264.6125 13.19723758158366
ONEWEB-0672             
1 55831U 23029AM  26164.22969670  .00000027  00000+0  35471-4 0  9990
2 55831  87.9190 275.2234 0002238 100.0479 260.0907 13.20772116160628
ONEWEB-0673             
1 55832U 23029AN  26163.87067379  .00000008  00000+0 -11132-4 0  9994
2 55832  87.9171 305.8269 0001725  94.6118 265.5212 13.19727381158330
ONEWEB-0674             
1 55833U 23029AP  26163.91797630 -.00000221  00000+0 -62937-3 0  9996
2 55833  87.8949 290.5691 0001771  87.0183 273.1149 13.14503983158857
ONEWEB-0675             
1 55834U 23029AQ  26163.88568462  .00000103  00000+0  22546-3 0  9991
2 55834  87.9162 305.8343 0002069 105.0354 255.1008 13.19724706158354
ONEWEB-0720             
1 55835U 23029AR  26163.95359829  .00000048  00000+0  86839-4 0  9999
2 55835  87.9163 305.8207 0001573 102.1041 258.0268 13.19724572158288
ONEWEB-0537             
1 56046U 23043A   26163.93877101  .00000093  00000+0  20846-3 0  9991
2 56046  87.9099 229.6152 0002252 100.3651 259.7734 13.16593842158406
ONEWEB-0538             
1 56047U 23043B   26164.23642567  .00000065  00000+0  13735-3 0  9990
2 56047  87.9100 229.5585 0002080 105.5339 254.6022 13.16594592158450
ONEWEB-0546             
1 56048U 23043C   26164.22376014 -.00000011  00000+0 -63394-4 0  9991
2 56048  87.9099 229.5610 0002767  99.3257 260.8187 13.16595185158447
ONEWEB-0547             
1 56049U 23043D   26164.23621585  .00000130  00000+0  28338-3 0  9997
2 56049  87.9257 244.7600 0001924 103.3750 256.7599 13.21825863157704
ONEWEB-0548             
1 56050U 23043E   26164.24828676  .00000149  00000+0  35693-3 0  9992
2 56050  87.9097 229.5524 0002060  85.0869 275.0498 13.16596655158445
ONEWEB-0549             
1 56051U 23043F   26164.23033273  .00000061  00000+0  11648-3 0  9990
2 56051  87.9253 244.7678 0002056 110.3476 249.7879 13.21825656157701
ONEWEB-0550             
1 56052U 23043G   26164.21688591  .00000032  00000+0  46364-4 0  9990
2 56052  87.9255 244.7681 0001936  93.4950 266.6405 13.21825701157706
ONEWEB-0551             
1 56053U 23043H   26164.27630743 -.00000002  00000+0 -39105-4 0  9997
2 56053  87.9000 260.0053 0001855 110.6679 249.4651 13.15549350155884
ONEWEB-0552             
1 56054U 23043J   26164.21181581  .00000107  00000+0  22857-3 0  9992
2 56054  87.9251 244.7748 0001821  99.8356 260.2984 13.21828490157701
ONEWEB-0553             
1 56055U 23043K   26164.23008955  .00000047  00000+0  89982-4 0  9994
2 56055  87.9097 229.5602 0002444  95.9348 264.2062 13.16594574158451
ONEWEB-0554             
1 56056U 23043L   26164.21743338  .00000005  00000+0 -21089-4 0  9993
2 56056  87.9095 229.5718 0002022  83.1634 276.9727 13.16585965158437
ONEWEB-0555             
1 56057U 23043M   26164.10341307  .00000073  00000+0  15765-3 0  9999
2 56057  87.9103 229.5822 0002658  97.2297 262.9136 13.16596938158420
ONEWEB-0557             
1 56058U 23043N   26164.19367144  .00000033  00000+0  51438-4 0  9990
2 56058  87.9101 229.5743 0002889  75.3654 284.7797 13.16594535158438
ONEWEB-0558             
1 56059U 23043P   26164.28078343  .00000003  00000+0 -24734-4 0  9998
2 56059  87.9255 244.7559 0002118 108.3212 251.8153 13.21827983157729
ONEWEB-0559             
1 56060U 23043Q   26164.26900314  .00000023  00000+0  23005-4 0  9991
2 56060  87.9257 244.7530 0001880 104.1188 256.0155 13.21827631157733
ONEWEB-0566             
1 56061U 23043R   26164.26229346  .00000108  00000+0  22982-3 0  9997
2 56061  87.9257 244.7526 0001843 107.6826 252.4510 13.21827350157716
ONEWEB-0568             
1 56062U 23043S   26164.21109323 -.00000002  00000+0 -39255-4 0  9992
2 56062  87.9098 229.5609 0002388  97.4588 262.6814 13.16594776158458
ONEWEB-0574             
1 56063U 23043T   26164.25555318 -.00000095  00000+0 -26163-3 0  9991
2 56063  87.9268 244.7565 0002131  94.0690 266.0688 13.21826211157758
ONEWEB-0575             
1 56064U 23043U   26164.20476124  .00000021  00000+0  20223-4 0  9993
2 56064  87.9099 229.5585 0002342  89.2077 270.9323 13.16594550158442
ONEWEB-0576             
1 56065U 23043V   26164.18575505  .00000083  00000+0  18297-3 0  9999
2 56065  87.9102 229.5697 0002186  92.6414 267.4967 13.16594354158437
ONEWEB-0577             
1 56066U 23043W   26164.19209373  .00000032  00000+0  51203-4 0  9997
2 56066  87.9103 229.5662 0002347  78.7791 281.3603 13.16593673158461
