OBJECT_NAME,OBJECT_ID,EPOCH,MEAN_MOTION,ECCENTRICITY,INCLINATION,RA_OF_ASC_NODE,ARG_OF_PERICENTER,MEAN_ANOMALY,EPHEMERIS_TYPE,CLASSIFICATION_TYPE,NORAD_CAT_ID,ELEMENT_SET_NO,REV_AT_EPOCH,BSTAR,MEAN_MOTION_DOT,MEAN_MOTION_DDOT
ONEWEB-0667,2023-029AH,2026-06-13T05:45:19.412928,13.20771704,.00017981,87.9196,275.2166,96.8600,263.2738,0,U,55827,999,16062,.86054397E-4,.48E-6,0
ONEWEB-0669,2023-029AJ,2026-06-13T07:27:08.065728,13.20771767,.00023055,87.9189,275.2140,88.3281,271.8116,0,U,55828,999,16063,-.3678863E-5,.11E-6,0
ONEWEB-0670,2023-029AK,2026-06-13T02:26:47.296320,13.14502703,.00017237,87.8947,290.5557,88.2937,271.8390,0,U,55829,999,15889,.57976743E-3,.228E-5,0
ONEWEB-0671,2023-029AL,2026-06-13T02:54:16.346592,13.19723758,.00017022,87.9165,305.7860,95.5202,264.6125,0,U,55830,999,15836,.31732643E-4,.26E-6,0
ONEWEB-0672,2023-029AM,2026-06-13T05:30:45.794880,13.20772116,.00022385,87.9190,275.2234,100.0479,260.0907,0,U,55831,999,16062,.35470667E-4,.27E-6,0
ONEWEB-0673,2023-029AN,2026-06-12T20:53:46.215456,13.19727381,.00017256,87.9171,305.8269,94.6118,265.5212,0,U,55832,999,15833,-.11131736E-4,.8E-7,0
ONEWEB-0674,2023-029AP,2026-06-12T22:01:53.152320,13.14503983,.00017716,87.8949,290.5691,87.0183,273.1149,0,U,55833,999,15885,-.62937049E-3,-.221E-5,0
ONEWEB-0675,2023-029AQ,2026-06-12T21:15:23.151168,13.19724706,.00020694,87.9162,305.8343,105.0354,255.1008,0,U,55834,999,15835,.2254633E-3,.103E-5,0
ONEWEB-0720,2023-029AR,2026-06-12T22:53:10.892256,13.19724572,.00015739,87.9163,305.8207,102.1041,258.0268,0,U,55835,999,15828,.86839265E-4,.48E-6,0
ONEWEB-0537,2023-043A,2026-06-12T22:31:49.815264,13.16593842,.00022526,87.9099,229.6152,100.3651,259.7734,0,U,56046,999,15840,.20845572E-3,.93E-6,0
ONEWEB-0538,2023-043B,2026-06-13T05:40:27.177888,13.16594592,.00020808,87.9100,229.5585,105.5339,254.6022,0,U,56047,999,15845,.1373501E-3,.65E-6,0
ONEWEB-0546,2023-043C,2026-06-13T05:22:12.876096,13.16595185,.00027678,87.9099,229.5610,99.3257,260.8187,0,U,56048,999,15844,-.63393757E-4,-.11E-6,0
ONEWEB-0547,2023-043D,2026-06-13T05:40:09.049440,13.21825863,.00019248,87.9257,244.7600,103.3750,256.7599,0,U,56049,999,15770,.28338203E-3,.13E-5,0
ONEWEB-0548,2023-043E,2026-06-13T05:57:31.976064,13.16596655,.00020601,87.9097,229.5524,85.0869,275.0498,0,U,56050,999,15844,.35692673E-3,.149E-5,0
ONEWEB-0549,2023-043F,2026-06-13T05:31:40.747872,13.21825656,.00020568,87.9253,244.7678,110.3476,249.7879,0,U,56051,999,15770,.11647919E-3,.61E-6,0
ONEWEB-0550,2023-043G,2026-06-13T05:12:18.942624,13.21825701,.00019369,87.9255,244.7681,93.4950,266.6405,0,U,56052,999,15770,.46364408E-4,.32E-6,0
ONEWEB-0551,2023-043H,2026-06-13T06:37:52.961952,13.15549350,.00018553,87.9000,260.0053,110.6679,249.4651,0,U,56053,999,15588,-.39105114E-4,-.2E-7,0
ONEWEB-0552,2023-043J,2026-06-13T05:05:00.885984,13.21828490,.00018217,87.9251,244.7748,99.8356,260.2984,0,U,56054,999,15770,.22856982E-3,.107E-5,0
ONEWEB-0553,2023-043K,2026-06-13T05:31:19.737120,13.16594574,.00024445,87.9097,229.5602,95.9348,264.2062,0,U,56055,999,15845,.89981704E-4,.47E-6,0
ONEWEB-0554,2023-043L,2026-06-13T05:13:06.244032,13.16585965,.00020228,87.9095,229.5718,83.1634,276.9727,0,U,56056,999,15843,-.21088888E-4,.5E-7,0
ONEWEB-0555,2023-043M,2026-06-13T02:28:54.889248,13.16596938,.00026582,87.9103,229.5822,97.2297,262.9136,0,U,56057,999,15842,.15765413E-3,.73E-6,0
ONEWEB-0557,2023-043N,2026-06-13T04:38:53.212416,13.16594535,.00028898,87.9101,229.5743,75.3654,284.7797,0,U,56058,999,15843,.5143796E-4,.33E-6,0
ONEWEB-0558,2023-043P,2026-06-13T06:44:19.688352,13.21827983,.0002118,87.9255,244.7559,108.3212,251.8153,0,U,56059,999,15772,-.24734497E-4,.3E-7,0
ONEWEB-0559,2023-043Q,2026-06-13T06:27:21.871296,13.21827631,.00018809,87.9257,244.7530,104.1188,256.0155,0,U,56060,999,15773,.23005266E-4,.23E-6,0
ONEWEB-0566,2023-043R,2026-06-13T06:17:42.154944,13.21827350,.00018431,87.9257,244.7526,107.6826,252.4510,0,U,56061,999,15771,.22982448E-3,.108E-5,0
ONEWEB-0568,2023-043S,2026-06-13T05:03:58.455072,13.16594776,.00023889,87.9098,229.5609,97.4588,262.6814,0,U,56062,999,15845,-.39254673E-4,-.2E-7,0
ONEWEB-0574,2023-043T,2026-06-13T06:07:59.794752,13.21826211,.00021318,87.9268,244.7565,94.0690,266.0688,0,U,56063,999,15775,-.26162517E-3,-.95E-6,0
ONEWEB-0575,2023-043U,2026-06-13T04:54:51.371136,13.16594550,.00023423,87.9099,229.5585,89.2077,270.9323,0,U,56064,999,15844,.20223068E-4,.21E-6,0
ONEWEB-0576,2023-043V,2026-06-13T04:27:29.236320,13.16594354,.00021862,87.9102,229.5697,92.6414,267.4967,0,U,56065,999,15843,.18296572E-3,.83E-6,0
ONEWEB-0577,2023-043W,2026-06-13T04:36:36.898272,13.16593673,.00023471,87.9103,229.5662,78.7791,281.3603,0,U,56066,999,15846,.5120319E-4,.32E-6,0
